CCSDS_OMM_VERS = 2.0
CREATION_DATE  = 
ORIGINATOR     = 

OBJECT_NAME    = ALOS (DAICHI)
OBJECT_ID      = 2006-002A
CENTER_NAME    = EARTH
REF_FRAME      = TEME
TIME_SYSTEM    = UTC
MEAN_ELEMENT_THEORY = SGP/SGP4

EPOCH          = 2025-12-17T17:37:14.152512
MEAN_MOTION    = 14.69501788
ECCENTRICITY   = .00013612
INCLINATION    = 98.1098
RA_OF_ASC_NODE = 303.1864
ARG_OF_PERICENTER = 113.5739
MEAN_ANOMALY   = 246.5610

EPHEMERIS_TYPE = 0
CLASSIFICATION_TYPE = U
NORAD_CAT_ID   = 28931
ELEMENT_SET_NO = 999
REV_AT_EPOCH   = 6144
BSTAR          = .19545051E-3
MEAN_MOTION_DOT = .111E-4
MEAN_MOTION_DDOT = 0

CCSDS_OMM_VERS = 2.0
CREATION_DATE  = 
ORIGINATOR     = 

OBJECT_NAME    = H-2A R/B
OBJECT_ID      = 2006-002B
CENTER_NAME    = EARTH
REF_FRAME      = TEME
TIME_SYSTEM    = UTC
MEAN_ELEMENT_THEORY = SGP/SGP4

EPOCH          = 2025-12-18T06:26:56.399712
MEAN_MOTION    = 15.14679874
ECCENTRICITY   = .00546481
INCLINATION    = 98.2317
RA_OF_ASC_NODE = 127.4690
ARG_OF_PERICENTER = 157.6930
MEAN_ANOMALY   = 202.6695

EPHEMERIS_TYPE = 0
CLASSIFICATION_TYPE = U
NORAD_CAT_ID   = 28932
ELEMENT_SET_NO = 999
REV_AT_EPOCH   = 8210
BSTAR          = .50064306E-3
MEAN_MOTION_DOT = .9542E-4
MEAN_MOTION_DDOT = 0

CCSDS_OMM_VERS = 2.0
CREATION_DATE  = 
ORIGINATOR     = 

OBJECT_NAME    = RESURS-DK 1
OBJECT_ID      = 2006-021A
CENTER_NAME    = EARTH
REF_FRAME      = TEME
TIME_SYSTEM    = UTC
MEAN_ELEMENT_THEORY = SGP/SGP4

EPOCH          = 2025-12-18T06:06:34.727904
MEAN_MOTION    = 15.12191900
ECCENTRICITY   = .00068951
INCLINATION    = 69.9337
RA_OF_ASC_NODE = 87.5863
ARG_OF_PERICENTER = 254.6917
MEAN_ANOMALY   = 105.3487

EPHEMERIS_TYPE = 0
CLASSIFICATION_TYPE = U
NORAD_CAT_ID   = 29228
ELEMENT_SET_NO = 999
REV_AT_EPOCH   = 7521
BSTAR          = .13720714E-3
MEAN_MOTION_DOT = .2267E-4
MEAN_MOTION_DDOT = 0

CCSDS_OMM_VERS = 2.0
CREATION_DATE  = 
ORIGINATOR     = 

OBJECT_NAME    = CZ-4B R/B
OBJECT_ID      = 2006-046C
CENTER_NAME    = EARTH
REF_FRAME      = TEME
TIME_SYSTEM    = UTC
MEAN_ELEMENT_THEORY = SGP/SGP4

EPOCH          = 2025-12-18T02:46:52.306752
MEAN_MOTION    = 15.15926092
ECCENTRICITY   = .00337371
INCLINATION    = 97.5731
RA_OF_ASC_NODE = 32.2402
ARG_OF_PERICENTER = 187.6152
MEAN_ANOMALY   = 172.4573

EPHEMERIS_TYPE = 0
CLASSIFICATION_TYPE = U
NORAD_CAT_ID   = 29507
ELEMENT_SET_NO = 999
REV_AT_EPOCH   = 4768
BSTAR          = .22106849E-3
MEAN_MOTION_DOT = .4227E-4
MEAN_MOTION_DDOT = 0

CCSDS_OMM_VERS = 2.0
CREATION_DATE  = 
ORIGINATOR     = 

OBJECT_NAME    = CZ-2C R/B
OBJECT_ID      = 2007-010B
CENTER_NAME    = EARTH
REF_FRAME      = TEME
TIME_SYSTEM    = UTC
MEAN_ELEMENT_THEORY = SGP/SGP4

EPOCH          = 2025-12-18T06:49:37.591104
MEAN_MOTION    = 14.20212132
ECCENTRICITY   = .00593089
INCLINATION    = 98.3976
RA_OF_ASC_NODE = 104.6562
ARG_OF_PERICENTER = 169.8566
MEAN_ANOMALY   = 190.3824

EPHEMERIS_TYPE = 0
CLASSIFICATION_TYPE = U
NORAD_CAT_ID   = 31114
ELEMENT_SET_NO = 999
REV_AT_EPOCH   = 96816
BSTAR          = .70345005E-4
MEAN_MOTION_DOT = .112E-5
MEAN_MOTION_DDOT = 0

CCSDS_OMM_VERS = 2.0
CREATION_DATE  = 
ORIGINATOR     = 

OBJECT_NAME    = COSMO-SKYMED 1
OBJECT_ID      = 2007-023A
CENTER_NAME    = EARTH
REF_FRAME      = TEME
TIME_SYSTEM    = UTC
MEAN_ELEMENT_THEORY = SGP/SGP4

EPOCH          = 2025-12-18T06:34:02.033760
MEAN_MOTION    = 14.95808345
ECCENTRICITY   = .00015698
INCLINATION    = 97.8835
RA_OF_ASC_NODE = 177.7090
ARG_OF_PERICENTER = 87.1417
MEAN_ANOMALY   = 272.9983

EPHEMERIS_TYPE = 0
CLASSIFICATION_TYPE = U
NORAD_CAT_ID   = 31598
ELEMENT_SET_NO = 999
REV_AT_EPOCH   = 273
BSTAR          = .33191182E-3
MEAN_MOTION_DOT = .3646E-4
MEAN_MOTION_DDOT = 0

CCSDS_OMM_VERS = 2.0
CREATION_DATE  = 
ORIGINATOR     = 

OBJECT_NAME    = COSMOS 2428
OBJECT_ID      = 2007-029A
CENTER_NAME    = EARTH
REF_FRAME      = TEME
TIME_SYSTEM    = UTC
MEAN_ELEMENT_THEORY = SGP/SGP4

EPOCH          = 2025-12-18T06:15:15.656832
MEAN_MOTION    = 14.12891685
ECCENTRICITY   = .00039773
INCLINATION    = 70.9365
RA_OF_ASC_NODE = 14.2882
ARG_OF_PERICENTER = 15.7020
MEAN_ANOMALY   = 344.4223

EPHEMERIS_TYPE = 0
CLASSIFICATION_TYPE = U
NORAD_CAT_ID   = 31792
ELEMENT_SET_NO = 999
REV_AT_EPOCH   = 95259
BSTAR          = .10174171E-3
MEAN_MOTION_DOT = .141E-5
MEAN_MOTION_DDOT = 0

CCSDS_OMM_VERS = 2.0
CREATION_DATE  = 
ORIGINATOR     = 

OBJECT_NAME    = SL-16 R/B
OBJECT_ID      = 2007-029B
CENTER_NAME    = EARTH
REF_FRAME      = TEME
TIME_SYSTEM    = UTC
MEAN_ELEMENT_THEORY = SGP/SGP4

EPOCH          = 2025-12-18T06:18:26.035776
MEAN_MOTION    = 14.14815382
ECCENTRICITY   = .000197
INCLINATION    = 70.9756
RA_OF_ASC_NODE = 343.5473
ARG_OF_PERICENTER = 261.6645
MEAN_ANOMALY   = 186.4595

EPHEMERIS_TYPE = 0
CLASSIFICATION_TYPE = U
NORAD_CAT_ID   = 31793
ELEMENT_SET_NO = 999
REV_AT_EPOCH   = 95385
BSTAR          = .92134743E-4
MEAN_MOTION_DOT = .13E-5
MEAN_MOTION_DDOT = 0

CCSDS_OMM_VERS = 2.0
CREATION_DATE  = 
ORIGINATOR     = 

OBJECT_NAME    = KORONAS-FOTON
OBJECT_ID      = 2009-003A
CENTER_NAME    = EARTH
REF_FRAME      = TEME
TIME_SYSTEM    = UTC
MEAN_ELEMENT_THEORY = SGP/SGP4

EPOCH          = 2025-12-18T06:33:06.448320
MEAN_MOTION    = 15.41311620
ECCENTRICITY   = .00134288
INCLINATION    = 82.4306
RA_OF_ASC_NODE = 0.3719
ARG_OF_PERICENTER = 91.1577
MEAN_ANOMALY   = 269.1208

EPHEMERIS_TYPE = 0
CLASSIFICATION_TYPE = U
NORAD_CAT_ID   = 33504
ELEMENT_SET_NO = 999
REV_AT_EPOCH   = 93319
BSTAR          = .21581848E-3
MEAN_MOTION_DOT = .9055E-4
MEAN_MOTION_DDOT = 0

CCSDS_OMM_VERS = 2.0
CREATION_DATE  = 
ORIGINATOR     = 

OBJECT_NAME    = CZ-2C R/B
OBJECT_ID      = 2011-030B
CENTER_NAME    = EARTH
REF_FRAME      = TEME
TIME_SYSTEM    = UTC
MEAN_ELEMENT_THEORY = SGP/SGP4

EPOCH          = 2025-12-18T02:59:29.905152
MEAN_MOTION    = 14.80918815
ECCENTRICITY   = .0051341
INCLINATION    = 97.8420
RA_OF_ASC_NODE = 306.1122
ARG_OF_PERICENTER = 255.5935
MEAN_ANOMALY   = 114.4182

EPHEMERIS_TYPE = 0
CLASSIFICATION_TYPE = U
NORAD_CAT_ID   = 37731
ELEMENT_SET_NO = 999
REV_AT_EPOCH   = 77802
BSTAR          = .15577679E-3
MEAN_MOTION_DOT = .1176E-4
MEAN_MOTION_DDOT = 0

CCSDS_OMM_VERS = 2.0
CREATION_DATE  = 
ORIGINATOR     = 

OBJECT_NAME    = H-2A R/B
OBJECT_ID      = 2012-025E
CENTER_NAME    = EARTH
REF_FRAME      = TEME
TIME_SYSTEM    = UTC
MEAN_ELEMENT_THEORY = SGP/SGP4

EPOCH          = 2025-12-18T03:07:08.940576
MEAN_MOTION    = 14.94482594
ECCENTRICITY   = .00440751
INCLINATION    = 98.4604
RA_OF_ASC_NODE = 307.7758
ARG_OF_PERICENTER = 218.3623
MEAN_ANOMALY   = 141.4458

EPHEMERIS_TYPE = 0
CLASSIFICATION_TYPE = U
NORAD_CAT_ID   = 38341
ELEMENT_SET_NO = 999
REV_AT_EPOCH   = 73603
BSTAR          = .16763615E-3
MEAN_MOTION_DOT = .1774E-4
MEAN_MOTION_DDOT = 0

CCSDS_OMM_VERS = 2.0
CREATION_DATE  = 
ORIGINATOR     = 

OBJECT_NAME    = SHIJIAN-16 (SJ-16)
OBJECT_ID      = 2013-057A
CENTER_NAME    = EARTH
REF_FRAME      = TEME
TIME_SYSTEM    = UTC
MEAN_ELEMENT_THEORY = SGP/SGP4

EPOCH          = 2025-12-18T07:14:48.310656
MEAN_MOTION    = 14.91997675
ECCENTRICITY   = .00177639
INCLINATION    = 74.9729
RA_OF_ASC_NODE = 339.1308
ARG_OF_PERICENTER = 306.8100
MEAN_ANOMALY   = 53.1458

EPHEMERIS_TYPE = 0
CLASSIFICATION_TYPE = U
NORAD_CAT_ID   = 39358
ELEMENT_SET_NO = 999
REV_AT_EPOCH   = 65936
BSTAR          = .72408546E-4
MEAN_MOTION_DOT = .706E-5
MEAN_MOTION_DDOT = 0

