ALOS (DAICHI)           
1 28931U 06002A   25351.73419158  .00001110  00000+0  19545-3 0  9994
2 28931  98.1098 303.1864 0001361 113.5739 246.5610 14.69501788 61443
H-2A R/B                
1 28932U 06002B   25352.26870833  .00009542  00000+0  50064-3 0  9993
2 28932  98.2317 127.4690 0054648 157.6930 202.6695 15.14679874 82106
RESURS-DK 1             
1 29228U 06021A   25352.25456861  .00002267  00000+0  13721-3 0  9999
2 29228  69.9337  87.5863 0006895 254.6917 105.3487 15.12191900 75213
CZ-4B R/B               
1 29507U 06046C   25352.11588318  .00004227  00000+0  22107-3 0  9990
2 29507  97.5731  32.2402 0033737 187.6152 172.4573 15.15926092 47687
CZ-2C R/B               
1 31114U 07010B   25352.28446286  .00000112  00000+0  70345-4 0  9991
2 31114  98.3976 104.6562 0059308 169.8566 190.3824 14.20212132968169
COSMO-SKYMED 1          
1 31598U 07023A   25352.27363465  .00003646  00000+0  33191-3 0  9999
2 31598  97.8835 177.7090 0001569  87.1417 272.9983 14.95808345  2737
COSMOS 2428             
1 31792U 07029A   25352.26059788  .00000141  00000+0  10174-3 0  9993
2 31792  70.9365  14.2882 0003977  15.7020 344.4223 14.12891685952597
SL-16 R/B               
1 31793U 07029B   25352.26280134  .00000130  00000+0  92135-4 0  9991
2 31793  70.9756 343.5473 0001970 261.6645 186.4595 14.14815382953850
KORONAS-FOTON           
1 33504U 09003A   25352.27299130  .00009055  00000+0  21582-3 0  9996
2 33504  82.4306   0.3719 0013428  91.1577 269.1208 15.41311620933195
CZ-2C R/B               
1 37731U 11030B   25352.12465168  .00001176  00000+0  15578-3 0  9999
2 37731  97.8420 306.1122 0051341 255.5935 114.4182 14.80918815778026
H-2A R/B                
1 38341U 12025E   25352.12996459  .00001774  00000+0  16764-3 0  9996
2 38341  98.4604 307.7758 0044075 218.3623 141.4458 14.94482594736030
SHIJIAN-16 (SJ-16)      
1 39358U 13057A   25352.30194804  .00000706  00000+0  72409-4 0  9998
2 39358  74.9729 339.1308 0017763 306.8100  53.1458 14.91997675659360
